OBJECT_NAME,OBJECT_ID,EPOCH,MEAN_MOTION,ECCENTRICITY,INCLINATION,RA_OF_ASC_NODE,ARG_OF_PERICENTER,MEAN_ANOMALY,EPHEMERIS_TYPE,CLASSIFICATION_TYPE,NORAD_CAT_ID,ELEMENT_SET_NO,REV_AT_EPOCH,BSTAR,MEAN_MOTION_DOT,MEAN_MOTION_DDOT
ONEWEB-0198,2021-031G,2026-06-18T17:58:38.841024,13.14502823,.00021227,87.8957,289.4001,112.9144,247.2210,0,U,48216,999,24869,-.53449931E-3,-.185E-5,0
ONEWEB-0189,2021-031H,2026-06-18T18:16:42.864672,13.14503666,.00020333,87.8968,289.3838,110.6291,249.5057,0,U,48217,999,24843,.19076655E-4,.2E-6,0
ONEWEB-0196,2021-031J,2026-06-18T14:05:31.458624,13.14503561,.000204,87.8966,289.4276,104.4952,255.6405,0,U,48218,999,24841,-.32023E-3,-.106E-5,0
ONEWEB-0183,2021-031K,2026-06-18T18:57:49.196736,13.14503218,.00020511,87.8966,289.3854,95.9029,264.2335,0,U,48219,999,24853,.46871249E-3,.187E-5,0
ONEWEB-0185,2021-031L,2026-06-18T21:25:05.710080,13.14502669,.00023414,87.8974,289.3583,100.2611,259.8783,0,U,48220,999,24847,-.69702742E-3,-.246E-5,0
ONEWEB-0187,2021-031M,2026-06-18T13:37:54.080256,13.14511193,.0002165,87.8962,289.4386,103.3267,256.8104,0,U,48221,999,24844,-.49263E-2,-.1813E-4,0
ONEWEB-0192,2021-031N,2026-06-18T18:23:33.369216,13.14501880,.00019265,87.8965,289.3895,104.6984,255.4359,0,U,48222,999,24838,.15862415E-3,.72E-6,0
ONEWEB-0219,2021-031P,2026-06-18T21:33:04.296096,13.14501110,.00021705,87.8966,289.3553,102.9589,257.1783,0,U,48223,999,24860,-.67709126E-3,-.238E-5,0
ONEWEB-0202,2021-031Q,2026-06-18T21:05:42.146592,13.14503209,.00019174,87.8968,289.3715,121.6705,238.4612,0,U,48224,999,24858,-.18558046E-3,-.56E-6,0
ONEWEB-0204,2021-031R,2026-06-18T18:15:33.337728,13.14512893,.00020846,87.8970,289.3896,93.3286,266.8082,0,U,48225,999,24846,.26052808E-2,.979E-5,0
ONEWEB-0205,2021-031S,2026-06-18T21:19:22.423008,13.14501215,.00021729,87.8975,289.3574,105.5032,254.6337,0,U,48226,999,24849,-.57103883E-3,-.199E-5,0
ONEWEB-0206,2021-031T,2026-06-18T18:50:57.750432,13.14503859,.00017855,87.8972,289.3795,97.2880,262.8453,0,U,48227,999,24843,.62969966E-3,.246E-5,0
ONEWEB-0182,2021-031U,2026-06-18T18:44:07.194912,13.14503145,.00020472,87.8967,289.3881,94.9913,265.1450,0,U,48228,999,24864,.74734766E-3,.29E-5,0
ONEWEB-0186,2021-031V,2026-06-18T17:10:29.536032,13.14502320,.00020252,87.8978,289.3917,102.5341,257.6015,0,U,48229,999,24858,.42685098E-3,.171E-5,0
ONEWEB-0181,2021-031W,2026-06-18T18:28:08.046048,13.14503084,.00020158,87.8956,289.4100,105.9749,254.1603,0,U,48230,999,24844,.30643978E-3,.126E-5,0
ONEWEB-0188,2021-031X,2026-06-18T17:33:18.949248,13.14503794,.00019871,87.8959,289.4168,100.9610,259.1743,0,U,48231,999,24834,-.29093766E-3,-.95E-6,0
ONEWEB-0220,2021-031Y,2026-06-18T18:30:24.145920,13.14502513,.0002259,87.8973,289.3822,103.3329,256.8053,0,U,48232,999,24861,.3326349E-3,.136E-5,0
ONEWEB-0165,2021-031Z,2026-06-18T21:01:07.711680,13.14500871,.00019987,87.8971,289.3740,111.2785,248.8558,0,U,48233,999,24858,.29189112E-3,.121E-5,0
ONEWEB-0199,2021-031AA,2026-06-18T18:48:40.972320,13.14503686,.00018108,87.8974,289.3785,95.9827,264.1509,0,U,48234,999,24847,.69220537E-3,.269E-5,0
ONEWEB-0203,2021-031AB,2026-06-18T18:34:59.373120,13.14502859,.00017978,87.8974,289.3837,103.7388,256.3942,0,U,48235,999,24848,.5037688E-3,.2E-5,0
ONEWEB-0197,2021-031AC,2026-06-18T21:37:27.272640,13.14504273,.00021815,87.8963,289.3443,96.8952,263.2426,0,U,48236,999,24841,-.4899976E-3,-.169E-5,0
ONEWEB-0194,2021-031AD,2026-06-18T21:07:58.912608,13.14502387,.00016893,87.8968,289.3707,98.8116,261.3205,0,U,48237,999,24858,-.14486688E-3,-.41E-6,0
ONEWEB-0193,2021-031AE,2026-06-18T21:30:48.540096,13.14502356,.00015167,87.8968,289.3579,95.3389,264.7914,0,U,48238,999,24853,-.85650641E-3,-.305E-5,0
ONEWEB-0191,2021-031AF,2026-06-18T18:07:34.909824,13.14503426,.00020488,87.8974,289.3851,96.6090,263.5273,0,U,48239,999,24837,-.3048793E-3,-.1E-5,0
ONEWEB-0195,2021-031AG,2026-06-18T17:34:27.666624,13.14501467,.00020841,87.8973,289.3900,111.2761,248.8592,0,U,48240,999,24835,-.33510774E-3,-.111E-5,0
ONEWEB-0201,2021-031AH,2026-06-18T17:17:31.075584,13.14504193,.0002224,87.8965,289.4083,97.5283,262.6100,0,U,48241,999,24858,.108918E-3,.53E-6,0
ONEWEB-0207,2021-031AJ,2026-06-18T18:38:24.460800,13.14503592,.0002198,87.8972,289.3821,98.1515,261.9864,0,U,48242,999,24850,.71113077E-3,.276E-5,0
ONEWEB-0208,2021-031AK,2026-06-18T18:12:08.643168,13.14503883,.00020192,87.8969,289.3922,111.4581,248.6764,0,U,48243,999,24851,-.16830587E-3,-.5E-6,0
ONEWEB-0200,2021-031AL,2026-06-18T17:19:37.286976,13.14502553,.0002,87.8977,289.3863,102.9711,257.1642,0,U,48244,999,24843,.13822149E-3,.64E-6,0
ONEWEB-0217,2021-031AM,2026-06-18T21:21:39.533760,13.14499381,.00020017,87.8976,289.3571,112.3141,247.8201,0,U,48245,999,24840,.14538885E-3,.67E-6,0
