ONEWEB-0198             
1 48216U 21031G   26169.74906066 -.00000185  00000+0 -53450-3 0  9995
2 48216  87.8957 289.4001 0002122 112.9144 247.2210 13.14502823248696
ONEWEB-0189             
1 48217U 21031H   26169.76160723  .00000020  00000+0  19077-4 0  9994
2 48217  87.8968 289.3838 0002033 110.6291 249.5057 13.14503666248437
ONEWEB-0196             
1 48218U 21031J   26169.58716966 -.00000106  00000+0 -32023-3 0  9993
2 48218  87.8966 289.4276 0002040 104.4952 255.6405 13.14503561248413
ONEWEB-0183             
1 48219U 21031K   26169.79015274  .00000187  00000+0  46871-3 0  9994
2 48219  87.8966 289.3854 0002051  95.9029 264.2335 13.14503218248536
ONEWEB-0185             
1 48220U 21031L   26169.89242720 -.00000246  00000+0 -69703-3 0  9992
2 48220  87.8974 289.3583 0002341 100.2611 259.8783 13.14502669248474
ONEWEB-0187             
1 48221U 21031M   26169.56798704 -.00001813  00000+0 -49263-2 0  9994
2 48221  87.8962 289.4386 0002165 103.3267 256.8104 13.14511193248442
ONEWEB-0192             
1 48222U 21031N   26169.76635844  .00000072  00000+0  15862-3 0  9995
2 48222  87.8965 289.3895 0001926 104.6984 255.4359 13.14501880248386
ONEWEB-0219             
1 48223U 21031P   26169.89796639 -.00000238  00000+0 -67709-3 0  9993
2 48223  87.8966 289.3553 0002170 102.9589 257.1783 13.14501110248604
ONEWEB-0202             
1 48224U 21031Q   26169.87896003 -.00000056  00000+0 -18558-3 0  9994
2 48224  87.8968 289.3715 0001917 121.6705 238.4612 13.14503209248584
ONEWEB-0204             
1 48225U 21031R   26169.76080252  .00000979  00000+0  26053-2 0  9994
2 48225  87.8970 289.3896 0002084  93.3286 266.8082 13.14512893248465
ONEWEB-0205             
1 48226U 21031S   26169.88845397 -.00000199  00000+0 -57104-3 0  9995
2 48226  87.8975 289.3574 0002172 105.5032 254.6337 13.14501215248494
ONEWEB-0206             
1 48227U 21031T   26169.78539063  .00000246  00000+0  62970-3 0  9993
2 48227  87.8972 289.3795 0001785  97.2880 262.8453 13.14503859248434
ONEWEB-0182             
1 48228U 21031U   26169.78063883  .00000290  00000+0  74735-3 0  9997
2 48228  87.8967 289.3881 0002047  94.9913 265.1450 13.14503145248642
ONEWEB-0186             
1 48229U 21031V   26169.71561963  .00000171  00000+0  42685-3 0  9990
2 48229  87.8978 289.3917 0002025 102.5341 257.6015 13.14502320248582
ONEWEB-0181             
1 48230U 21031W   26169.76953757  .00000126  00000+0  30644-3 0  9995
2 48230  87.8956 289.4100 0002015 105.9749 254.1603 13.14503084248441
ONEWEB-0188             
1 48231U 21031X   26169.73146932 -.00000095  00000+0 -29094-3 0  9996
2 48231  87.8959 289.4168 0001987 100.9610 259.1743 13.14503794248345
ONEWEB-0220             
1 48232U 21031Y   26169.77111280  .00000136  00000+0  33263-3 0  9996
2 48232  87.8973 289.3822 0002259 103.3329 256.8053 13.14502513248611
ONEWEB-0165             
1 48233U 21031Z   26169.87578370  .00000121  00000+0  29189-3 0  9991
2 48233  87.8971 289.3740 0001998 111.2785 248.8558 13.14500871248584
ONEWEB-0199             
1 48234U 21031AA  26169.78380755  .00000269  00000+0  69221-3 0  9994
2 48234  87.8974 289.3785 0001810  95.9827 264.1509 13.14503686248477
ONEWEB-0203             
1 48235U 21031AB  26169.77429830  .00000200  00000+0  50377-3 0  9999
2 48235  87.8974 289.3837 0001797 103.7388 256.3942 13.14502859248486
ONEWEB-0197             
1 48236U 21031AC  26169.90101010 -.00000169  00000+0 -49000-3 0  9999
2 48236  87.8963 289.3443 0002181  96.8952 263.2426 13.14504273248414
ONEWEB-0194             
1 48237U 21031AD  26169.88054297 -.00000041  00000+0 -14487-3 0  9991
2 48237  87.8968 289.3707 0001689  98.8116 261.3205 13.14502387248585
ONEWEB-0193             
1 48238U 21031AE  26169.89639514 -.00000305  00000+0 -85651-3 0  9998
2 48238  87.8968 289.3579 0001516  95.3389 264.7914 13.14502356248531
ONEWEB-0191             
1 48239U 21031AF  26169.75526516 -.00000100  00000+0 -30488-3 0  9992
2 48239  87.8974 289.3851 0002048  96.6090 263.5273 13.14503426248372
ONEWEB-0195             
1 48240U 21031AG  26169.73226466 -.00000111  00000+0 -33511-3 0  9995
2 48240  87.8973 289.3900 0002084 111.2761 248.8592 13.14501467248358
ONEWEB-0201             
1 48241U 21031AH  26169.72049856  .00000053  00000+0  10892-3 0  9991
2 48241  87.8965 289.4083 0002224  97.5283 262.6100 13.14504193248587
ONEWEB-0207             
1 48242U 21031AJ  26169.77667200  .00000276  00000+0  71113-3 0  9996
2 48242  87.8972 289.3821 0002198  98.1515 261.9864 13.14503592248503
ONEWEB-0208             
1 48243U 21031AK  26169.75843337 -.00000050  00000+0 -16831-3 0  9990
2 48243  87.8969 289.3922 0002019 111.4581 248.6764 13.14503883248511
ONEWEB-0200             
1 48244U 21031AL  26169.72195934  .00000064  00000+0  13822-3 0  9991
2 48244  87.8977 289.3863 0002000 102.9711 257.1642 13.14502553248439
ONEWEB-0217             
1 48245U 21031AM  26169.89004090  .00000067  00000+0  14539-3 0  9991
2 48245  87.8976 289.3571 0002001 112.3141 247.8201 13.14499381248406
